[
  {
    "OBJECT_NAME": "ISS (ZARYA)",
    "OBJECT_ID": "1998-067A",
    "EPOCH": "2025-05-10T11:28:05.862432",
    "MEAN_MOTION": 15.49451152,
    "ECCENTRICITY": 0.0002317,
    "INCLINATION": 51.6338,
    "RA_OF_ASC_NODE": 133.8645,
    "ARG_OF_PERICENTER": 95.1602,
    "MEAN_ANOMALY": 264.9651,
    "EPHEMERIS_TYPE": 0,
    "CLASSIFICATION_TYPE": "U",
    "NORAD_CAT_ID": 25544,
    "ELEMENT_SET_NO": 999,
    "REV_AT_EPOCH": 50931,
    "BSTAR": 0.00018811,
    "MEAN_MOTION_DOT": 0.00010091,
    "MEAN_MOTION_DDOT": 0
  },
  {
    "OBJECT_NAME": "CSS (TIANHE)",
    "OBJECT_ID": "2021-035A",
    "EPOCH": "2025-05-10T14:44:40.788672",
    "MEAN_MOTION": 15.61630622,
    "ECCENTRICITY": 0.0006381,
    "INCLINATION": 41.4648,
    "RA_OF_ASC_NODE": 249.0637,
    "ARG_OF_PERICENTER": 246.5481,
    "MEAN_ANOMALY": 113.4688,
    "EPHEMERIS_TYPE": 0,
    "CLASSIFICATION_TYPE": "U",
    "NORAD_CAT_ID": 48274,
    "ELEMENT_SET_NO": 999,
    "REV_AT_EPOCH": 23028,
    "BSTAR": 0.00038655,
    "MEAN_MOTION_DOT": 0.00034069,
    "MEAN_MOTION_DDOT": 0
  },
  {
    "OBJECT_NAME": "ISS (NAUKA)",
    "OBJECT_ID": "2021-066A",
    "EPOCH": "2025-05-10T11:28:05.862432",
    "MEAN_MOTION": 15.49451152,
    "ECCENTRICITY": 0.0002317,
    "INCLINATION": 51.6338,
    "RA_OF_ASC_NODE": 133.8645,
    "ARG_OF_PERICENTER": 95.1602,
    "MEAN_ANOMALY": 264.9651,
    "EPHEMERIS_TYPE": 0,
    "CLASSIFICATION_TYPE": "U",
    "NORAD_CAT_ID": 49044,
    "ELEMENT_SET_NO": 999,
    "REV_AT_EPOCH": 21289,
    "BSTAR": 0.00018811,
    "MEAN_MOTION_DOT": 0.00010091,
    "MEAN_MOTION_DDOT": 0
  },
  {
    "OBJECT_NAME": "FREGAT DEB",
    "OBJECT_ID": "2011-037PF",
    "EPOCH": "2025-05-10T08:05:45.715488",
    "MEAN_MOTION": 12.28542032,
    "ECCENTRICITY": 0.0862126,
    "INCLINATION": 51.6374,
    "RA_OF_ASC_NODE": 118.0625,
    "ARG_OF_PERICENTER": 109.997,
    "MEAN_ANOMALY": 259.5749,
    "EPHEMERIS_TYPE": 0,
    "CLASSIFICATION_TYPE": "U",
    "NORAD_CAT_ID": 49271,
    "ELEMENT_SET_NO": 999,
    "REV_AT_EPOCH": 17525,
    "BSTAR": 0.013941,
    "MEAN_MOTION_DOT": 5.475e-05,
    "MEAN_MOTION_DDOT": 0
  },
  {
    "OBJECT_NAME": "CSS (WENTIAN)",
    "OBJECT_ID": "2022-085A",
    "EPOCH": "2025-05-10T14:44:40.788672",
    "MEAN_MOTION": 15.61630622,
    "ECCENTRICITY": 0.0006381,
    "INCLINATION": 41.4648,
    "RA_OF_ASC_NODE": 249.0637,
    "ARG_OF_PERICENTER": 246.5481,
    "MEAN_ANOMALY": 113.4688,
    "EPHEMERIS_TYPE": 0,
    "CLASSIFICATION_TYPE": "U",
    "NORAD_CAT_ID": 53239,
    "ELEMENT_SET_NO": 999,
    "REV_AT_EPOCH": 15683,
    "BSTAR": 0.00038655,
    "MEAN_MOTION_DOT": 0.00034069,
    "MEAN_MOTION_DDOT": 0
  },
  {
    "OBJECT_NAME": "CSS (MENGTIAN)",
    "OBJECT_ID": "2022-143A",
    "EPOCH": "2025-05-10T14:44:40.788672",
    "MEAN_MOTION": 15.61630622,
    "ECCENTRICITY": 0.0006381,
    "INCLINATION": 41.4648,
    "RA_OF_ASC_NODE": 249.0637,
    "ARG_OF_PERICENTER": 246.5481,
    "MEAN_ANOMALY": 113.4688,
    "EPHEMERIS_TYPE": 0,
    "CLASSIFICATION_TYPE": "U",
    "NORAD_CAT_ID": 54216,
    "ELEMENT_SET_NO": 999,
    "REV_AT_EPOCH": 14159,
    "BSTAR": 0.00038655,
    "MEAN_MOTION_DOT": 0.00034069,
    "MEAN_MOTION_DDOT": 0
  },
  {
    "OBJECT_NAME": "TIANZHOU-8",
    "OBJECT_ID": "2024-211A",
    "EPOCH": "2025-05-10T14:44:40.788672",
    "MEAN_MOTION": 15.61630622,
    "ECCENTRICITY": 0.0006381,
    "INCLINATION": 41.4648,
    "RA_OF_ASC_NODE": 249.0637,
    "ARG_OF_PERICENTER": 246.5481,
    "MEAN_ANOMALY": 113.4688,
    "EPHEMERIS_TYPE": 0,
    "CLASSIFICATION_TYPE": "U",
    "NORAD_CAT_ID": 61983,
    "ELEMENT_SET_NO": 999,
    "REV_AT_EPOCH": 2466,
    "BSTAR": 0.00038655,
    "MEAN_MOTION_DOT": 0.00034069,
    "MEAN_MOTION_DDOT": 0
  },
  {
    "OBJECT_NAME": "PROGRESS-MS 29",
    "OBJECT_ID": "2024-215A",
    "EPOCH": "2025-05-10T11:28:05.862432",
    "MEAN_MOTION": 15.49451152,
    "ECCENTRICITY": 0.0002317,
    "INCLINATION": 51.6338,
    "RA_OF_ASC_NODE": 133.8645,
    "ARG_OF_PERICENTER": 95.1602,
    "MEAN_ANOMALY": 264.9651,
    "EPHEMERIS_TYPE": 0,
    "CLASSIFICATION_TYPE": "U",
    "NORAD_CAT_ID": 62030,
    "ELEMENT_SET_NO": 999,
    "REV_AT_EPOCH": 2382,
    "BSTAR": 0.00018811,
    "MEAN_MOTION_DOT": 0.00010091,
    "MEAN_MOTION_DDOT": 0
  },
  {
    "OBJECT_NAME": "PROGRESS-MS 30",
    "OBJECT_ID": "2025-041B",
    "EPOCH": "2025-05-10T11:28:05.862432",
    "MEAN_MOTION": 15.49451152,
    "ECCENTRICITY": 0.0002317,
    "INCLINATION": 51.6338,
    "RA_OF_ASC_NODE": 133.8645,
    "ARG_OF_PERICENTER": 95.1602,
    "MEAN_ANOMALY": 264.9651,
    "EPHEMERIS_TYPE": 0,
    "CLASSIFICATION_TYPE": "U",
    "NORAD_CAT_ID": 63129,
    "ELEMENT_SET_NO": 999,
    "REV_AT_EPOCH": 856,
    "BSTAR": 0.00018811,
    "MEAN_MOTION_DOT": 0.00010091,
    "MEAN_MOTION_DDOT": 0
  },
  {
    "OBJECT_NAME": "CREW DRAGON 10",
    "OBJECT_ID": "2025-049A",
    "EPOCH": "2025-05-10T11:28:05.862432",
    "MEAN_MOTION": 15.49451152,
    "ECCENTRICITY": 0.0002317,
    "INCLINATION": 51.6338,
    "RA_OF_ASC_NODE": 133.8645,
    "ARG_OF_PERICENTER": 95.1602,
    "MEAN_ANOMALY": 264.9651,
    "EPHEMERIS_TYPE": 0,
    "CLASSIFICATION_TYPE": "U",
    "NORAD_CAT_ID": 63204,
    "ELEMENT_SET_NO": 999,
    "REV_AT_EPOCH": 800,
    "BSTAR": 0.00018811,
    "MEAN_MOTION_DOT": 0.00010091,
    "MEAN_MOTION_DDOT": 0
  },
  {
    "OBJECT_NAME": "SOYUZ-MS 27",
    "OBJECT_ID": "2025-072A",
    "EPOCH": "2025-05-10T11:28:05.862432",
    "MEAN_MOTION": 15.49451152,
    "ECCENTRICITY": 0.0002317,
    "INCLINATION": 51.6338,
    "RA_OF_ASC_NODE": 133.8645,
    "ARG_OF_PERICENTER": 95.1602,
    "MEAN_ANOMALY": 264.9651,
    "EPHEMERIS_TYPE": 0,
    "CLASSIFICATION_TYPE": "U",
    "NORAD_CAT_ID": 63520,
    "ELEMENT_SET_NO": 999,
    "REV_AT_EPOCH": 248,
    "BSTAR": 0.00018811,
    "MEAN_MOTION_DOT": 0.00010091,
    "MEAN_MOTION_DDOT": 0
  },
  {
    "OBJECT_NAME": "DRAGON CRS-32",
    "OBJECT_ID": "2025-080A",
    "EPOCH": "2025-05-10T11:28:05.862432",
    "MEAN_MOTION": 15.49451152,
    "ECCENTRICITY": 0.0002317,
    "INCLINATION": 51.6338,
    "RA_OF_ASC_NODE": 133.8645,
    "ARG_OF_PERICENTER": 95.1602,
    "MEAN_ANOMALY": 264.9651,
    "EPHEMERIS_TYPE": 0,
    "CLASSIFICATION_TYPE": "U",
    "NORAD_CAT_ID": 63628,
    "ELEMENT_SET_NO": 999,
    "REV_AT_EPOCH": 50854,
    "BSTAR": 0.00018811,
    "MEAN_MOTION_DOT": 0.00010091,
    "MEAN_MOTION_DDOT": 0
  },
  {
    "OBJECT_NAME": "SHENZHOU-20 (SZ-20)",
    "OBJECT_ID": "2025-082A",
    "EPOCH": "2025-05-06T10:58:13.504800",
    "MEAN_MOTION": 15.61329461,
    "ECCENTRICITY": 0.0006064,
    "INCLINATION": 41.4667,
    "RA_OF_ASC_NODE": 274.3938,
    "ARG_OF_PERICENTER": 227.4382,
    "MEAN_ANOMALY": 132.5946,
    "EPHEMERIS_TYPE": 0,
    "CLASSIFICATION_TYPE": "U",
    "NORAD_CAT_ID": 63632,
    "ELEMENT_SET_NO": 999,
    "REV_AT_EPOCH": 22963,
    "BSTAR": 0.00019416,
    "MEAN_MOTION_DOT": 0.00016702,
    "MEAN_MOTION_DDOT": 0
  }
]