ISS (ZARYA)             
1 25544U 98067A   25130.47784563  .00010091  00000+0  18811-3 0  9997
2 25544  51.6338 133.8645 0002317  95.1602 264.9651 15.49451152509312
CSS (TIANHE)            
1 48274U 21035A   25130.61436098  .00034069  00000+0  38655-3 0  9995
2 48274  41.4648 249.0637 0006381 246.5481 113.4688 15.61630622230281
ISS (NAUKA)             
1 49044U 21066A   25130.47784563  .00010091  00000+0  18811-3 0  9993
2 49044  51.6338 133.8645 0002317  95.1602 264.9651 15.49451152212897
FREGAT DEB              
1 49271U 11037PF  25130.33733467  .00005475  00000+0  13941-1 0  9991
2 49271  51.6374 118.0625 0862126 109.9970 259.5749 12.28542032175254
CSS (WENTIAN)           
1 53239U 22085A   25130.61436098  .00034069  00000+0  38655-3 0  9998
2 53239  41.4648 249.0637 0006381 246.5481 113.4688 15.61630622156836
CSS (MENGTIAN)          
1 54216U 22143A   25130.61436098  .00034069  00000+0  38655-3 0  9999
2 54216  41.4648 249.0637 0006381 246.5481 113.4688 15.61630622141599
TIANZHOU-8              
1 61983U 24211A   25130.61436098  .00034069  00000+0  38655-3 0  9996
2 61983  41.4648 249.0637 0006381 246.5481 113.4688 15.61630622 24666
PROGRESS-MS 29          
1 62030U 24215A   25130.47784563  .00010091  00000+0  18811-3 0  9992
2 62030  51.6338 133.8645 0002317  95.1602 264.9651 15.49451152 23820
PROGRESS-MS 30          
1 63129U 25041B   25130.47784563  .00010091  00000+0  18811-3 0  9990
2 63129  51.6338 133.8645 0002317  95.1602 264.9651 15.49451152  8564
CREW DRAGON 10          
1 63204U 25049A   25130.47784563  .00010091  00000+0  18811-3 0  9992
2 63204  51.6338 133.8645 0002317  95.1602 264.9651 15.49451152  8007
SOYUZ-MS 27             
1 63520U 25072A   25130.47784563  .00010091  00000+0  18811-3 0  9999
2 63520  51.6338 133.8645 0002317  95.1602 264.9651 15.49451152  2484
DRAGON CRS-32           
1 63628U 25080A   25130.47784563  .00010091  00000+0  18811-3 0  9997
2 63628  51.6338 133.8645 0002317  95.1602 264.9651 15.49451152508541
SHENZHOU-20 (SZ-20)     
1 63632U 25082A   25126.45710075  .00016702  00000+0  19416-3 0  9991
2 63632  41.4667 274.3938 0006064 227.4382 132.5946 15.61329461229630
